STARLINK-35708          
1 66277U 25247N   25334.61129613  .00053823  00000+0  13458-2 0  9997
2 66277  53.1588 294.5368 0001328 103.9669 256.1483 15.39626912  5878
STARLINK-35713          
1 66278U 25247P   25334.41190461  .00049840  00000+0  12465-2 0  9996
2 66278  53.1595 295.4242 0001163  95.5575 264.5562 15.39652279  5840
STARLINK-35724          
1 66279U 25247Q   25334.60631564  .00001687  00000+0  52155-4 0  9991
2 66279  53.1596 294.5050 0001610 108.7643 251.3537 15.39618443  5828
STARLINK-35726          
1 66280U 25247R   25334.61095713  .00025368  00000+0  64167-3 0  9991
2 66280  53.1590 294.5341 0001407 111.5628 248.5527 15.39638860  5828
STARLINK-35727          
1 66281U 25247S   25334.60201022  .00056739  00000+0  14173-2 0  9990
2 66281  53.1589 294.4776 0002078  78.9558 281.1680 15.39632286  5820
STARLINK-35776          
1 66282U 25247T   25334.60167769  .00060409  00000+0  15081-2 0  9998
2 66282  53.1589 294.4752 0002508  76.0317 284.0966 15.39622296  5824
STARLINK-35774          
1 66283U 25247U   25334.58335648  .00003705  00000+0  10260-3 0  9990
2 66283  53.1586 294.5140 0001264 107.9637 174.4677 15.39606023  5664
STARLINK-35830          
1 66284U 25247V   25334.58335648  .00004521  00000+0  12300-3 0  9995
2 66284  53.1587 294.5098 0001504 113.7403 170.5577 15.39603805  5662
STARLINK-35819          
1 66285U 25247W   25334.58335648  .00003918  00000+0  10793-3 0  9999
2 66285  53.1583 294.4621 0001251  82.9450 225.2476 15.39602559  5614
STARLINK-35783          
1 66286U 25247X   25334.58335648  .00004048  00000+0  11120-3 0  9990
2 66286  53.1583 294.4575 0001222  83.2623 226.7986 15.39595980  5618
STARLINK-34884          
1 66287U 25247Y   25334.58335648  .00006735  00000+0  17838-3 0  9998
2 66287  53.1578 294.4100 0001175  86.6664 247.2990 15.39591254  5934
STARLINK-34896          
1 66288U 25247Z   25334.58335648  .00038797  00000+0  97683-3 0  9998
2 66288  53.1579 294.4064 0001189  74.7181 261.0659 15.39561774  5932
