CCSDS_OMM_VERS = 2.0
CREATION_DATE  = 
ORIGINATOR     = 

OBJECT_NAME    = STARLINK-35708
OBJECT_ID      = 2025-247N
CENTER_NAME    = EARTH
REF_FRAME      = TEME
TIME_SYSTEM    = UTC
MEAN_ELEMENT_THEORY = SGP/SGP4

EPOCH          = 2025-11-30T14:40:15.985632
MEAN_MOTION    = 15.39626912
ECCENTRICITY   = .0001328
INCLINATION    = 53.1588
RA_OF_ASC_NODE = 294.5368
ARG_OF_PERICENTER = 103.9669
MEAN_ANOMALY   = 256.1483

EPHEMERIS_TYPE = 0
CLASSIFICATION_TYPE = U
NORAD_CAT_ID   = 66277
ELEMENT_SET_NO = 999
REV_AT_EPOCH   = 587
BSTAR          = .13457614E-2
MEAN_MOTION_DOT = .53823E-3
MEAN_MOTION_DDOT = 0

CCSDS_OMM_VERS = 2.0
CREATION_DATE  = 
ORIGINATOR     = 

OBJECT_NAME    = STARLINK-35713
OBJECT_ID      = 2025-247P
CENTER_NAME    = EARTH
REF_FRAME      = TEME
TIME_SYSTEM    = UTC
MEAN_ELEMENT_THEORY = SGP/SGP4

EPOCH          = 2025-11-30T09:53:08.558304
MEAN_MOTION    = 15.39652279
ECCENTRICITY   = .00011635
INCLINATION    = 53.1595
RA_OF_ASC_NODE = 295.4242
ARG_OF_PERICENTER = 95.5575
MEAN_ANOMALY   = 264.5562

EPHEMERIS_TYPE = 0
CLASSIFICATION_TYPE = U
NORAD_CAT_ID   = 66278
ELEMENT_SET_NO = 999
REV_AT_EPOCH   = 584
BSTAR          = .12465201E-2
MEAN_MOTION_DOT = .4984E-3
MEAN_MOTION_DDOT = 0

CCSDS_OMM_VERS = 2.0
CREATION_DATE  = 
ORIGINATOR     = 

OBJECT_NAME    = STARLINK-35724
OBJECT_ID      = 2025-247Q
CENTER_NAME    = EARTH
REF_FRAME      = TEME
TIME_SYSTEM    = UTC
MEAN_ELEMENT_THEORY = SGP/SGP4

EPOCH          = 2025-11-30T14:33:05.671296
MEAN_MOTION    = 15.39618443
ECCENTRICITY   = .00016101
INCLINATION    = 53.1596
RA_OF_ASC_NODE = 294.5050
ARG_OF_PERICENTER = 108.7643
MEAN_ANOMALY   = 251.3537

EPHEMERIS_TYPE = 0
CLASSIFICATION_TYPE = U
NORAD_CAT_ID   = 66279
ELEMENT_SET_NO = 999
REV_AT_EPOCH   = 582
BSTAR          = .52154969E-4
MEAN_MOTION_DOT = .1687E-4
MEAN_MOTION_DDOT = 0

CCSDS_OMM_VERS = 2.0
CREATION_DATE  = 
ORIGINATOR     = 

OBJECT_NAME    = STARLINK-35726
OBJECT_ID      = 2025-247R
CENTER_NAME    = EARTH
REF_FRAME      = TEME
TIME_SYSTEM    = UTC
MEAN_ELEMENT_THEORY = SGP/SGP4

EPOCH          = 2025-11-30T14:39:46.696032
MEAN_MOTION    = 15.39638860
ECCENTRICITY   = .00014074
INCLINATION    = 53.1590
RA_OF_ASC_NODE = 294.5341
ARG_OF_PERICENTER = 111.5628
MEAN_ANOMALY   = 248.5527

EPHEMERIS_TYPE = 0
CLASSIFICATION_TYPE = U
NORAD_CAT_ID   = 66280
ELEMENT_SET_NO = 999
REV_AT_EPOCH   = 582
BSTAR          = .64166561E-3
MEAN_MOTION_DOT = .25368E-3
MEAN_MOTION_DDOT = 0

CCSDS_OMM_VERS = 2.0
CREATION_DATE  = 
ORIGINATOR     = 

OBJECT_NAME    = STARLINK-35727
OBJECT_ID      = 2025-247S
CENTER_NAME    = EARTH
REF_FRAME      = TEME
TIME_SYSTEM    = UTC
MEAN_ELEMENT_THEORY = SGP/SGP4

EPOCH          = 2025-11-30T14:26:53.683008
MEAN_MOTION    = 15.39632286
ECCENTRICITY   = .00020784
INCLINATION    = 53.1589
RA_OF_ASC_NODE = 294.4776
ARG_OF_PERICENTER = 78.9558
MEAN_ANOMALY   = 281.1680

EPHEMERIS_TYPE = 0
CLASSIFICATION_TYPE = U
NORAD_CAT_ID   = 66281
ELEMENT_SET_NO = 999
REV_AT_EPOCH   = 582
BSTAR          = .1417308E-2
MEAN_MOTION_DOT = .56739E-3
MEAN_MOTION_DDOT = 0

CCSDS_OMM_VERS = 2.0
CREATION_DATE  = 
ORIGINATOR     = 

OBJECT_NAME    = STARLINK-35776
OBJECT_ID      = 2025-247T
CENTER_NAME    = EARTH
REF_FRAME      = TEME
TIME_SYSTEM    = UTC
MEAN_ELEMENT_THEORY = SGP/SGP4

EPOCH          = 2025-11-30T14:26:24.952416
MEAN_MOTION    = 15.39622296
ECCENTRICITY   = .00025087
INCLINATION    = 53.1589
RA_OF_ASC_NODE = 294.4752
ARG_OF_PERICENTER = 76.0317
MEAN_ANOMALY   = 284.0966

EPHEMERIS_TYPE = 0
CLASSIFICATION_TYPE = U
NORAD_CAT_ID   = 66282
ELEMENT_SET_NO = 999
REV_AT_EPOCH   = 582
BSTAR          = .15080837E-2
MEAN_MOTION_DOT = .60409E-3
MEAN_MOTION_DDOT = 0

CCSDS_OMM_VERS = 2.0
CREATION_DATE  = 
ORIGINATOR     = 

OBJECT_NAME    = STARLINK-35774
OBJECT_ID      = 2025-247U
CENTER_NAME    = EARTH
REF_FRAME      = TEME
TIME_SYSTEM    = UTC
MEAN_ELEMENT_THEORY = SGP/SGP4

EPOCH          = 2025-11-30T14:00:01.999872
MEAN_MOTION    = 15.39606023
ECCENTRICITY   = .0001264
INCLINATION    = 53.1586
RA_OF_ASC_NODE = 294.5140
ARG_OF_PERICENTER = 107.9637
MEAN_ANOMALY   = 174.4677

EPHEMERIS_TYPE = 0
CLASSIFICATION_TYPE = U
NORAD_CAT_ID   = 66283
ELEMENT_SET_NO = 999
REV_AT_EPOCH   = 566
BSTAR          = .10259643E-3
MEAN_MOTION_DOT = .3705E-4
MEAN_MOTION_DDOT = 0

CCSDS_OMM_VERS = 2.0
CREATION_DATE  = 
ORIGINATOR     = 

OBJECT_NAME    = STARLINK-35830
OBJECT_ID      = 2025-247V
CENTER_NAME    = EARTH
REF_FRAME      = TEME
TIME_SYSTEM    = UTC
MEAN_ELEMENT_THEORY = SGP/SGP4

EPOCH          = 2025-11-30T14:00:01.999872
MEAN_MOTION    = 15.39603805
ECCENTRICITY   = .00015048
INCLINATION    = 53.1587
RA_OF_ASC_NODE = 294.5098
ARG_OF_PERICENTER = 113.7403
MEAN_ANOMALY   = 170.5577

EPHEMERIS_TYPE = 0
CLASSIFICATION_TYPE = U
NORAD_CAT_ID   = 66284
ELEMENT_SET_NO = 999
REV_AT_EPOCH   = 566
BSTAR          = .12300317E-3
MEAN_MOTION_DOT = .4521E-4
MEAN_MOTION_DDOT = 0

CCSDS_OMM_VERS = 2.0
CREATION_DATE  = 
ORIGINATOR     = 

OBJECT_NAME    = STARLINK-35819
OBJECT_ID      = 2025-247W
CENTER_NAME    = EARTH
REF_FRAME      = TEME
TIME_SYSTEM    = UTC
MEAN_ELEMENT_THEORY = SGP/SGP4

EPOCH          = 2025-11-30T14:00:01.999872
MEAN_MOTION    = 15.39602559
ECCENTRICITY   = .00012513
INCLINATION    = 53.1583
RA_OF_ASC_NODE = 294.4621
ARG_OF_PERICENTER = 82.9450
MEAN_ANOMALY   = 225.2476

EPHEMERIS_TYPE = 0
CLASSIFICATION_TYPE = U
NORAD_CAT_ID   = 66285
ELEMENT_SET_NO = 999
REV_AT_EPOCH   = 561
BSTAR          = .10793289E-3
MEAN_MOTION_DOT = .3918E-4
MEAN_MOTION_DDOT = 0

CCSDS_OMM_VERS = 2.0
CREATION_DATE  = 
ORIGINATOR     = 

OBJECT_NAME    = STARLINK-35783
OBJECT_ID      = 2025-247X
CENTER_NAME    = EARTH
REF_FRAME      = TEME
TIME_SYSTEM    = UTC
MEAN_ELEMENT_THEORY = SGP/SGP4

EPOCH          = 2025-11-30T14:00:01.999872
MEAN_MOTION    = 15.39595980
ECCENTRICITY   = .00012228
INCLINATION    = 53.1583
RA_OF_ASC_NODE = 294.4575
ARG_OF_PERICENTER = 83.2623
MEAN_ANOMALY   = 226.7986

EPHEMERIS_TYPE = 0
CLASSIFICATION_TYPE = U
NORAD_CAT_ID   = 66286
ELEMENT_SET_NO = 999
REV_AT_EPOCH   = 561
BSTAR          = .11120274E-3
MEAN_MOTION_DOT = .4048E-4
MEAN_MOTION_DDOT = 0

CCSDS_OMM_VERS = 2.0
CREATION_DATE  = 
ORIGINATOR     = 

OBJECT_NAME    = STARLINK-34884
OBJECT_ID      = 2025-247Y
CENTER_NAME    = EARTH
REF_FRAME      = TEME
TIME_SYSTEM    = UTC
MEAN_ELEMENT_THEORY = SGP/SGP4

EPOCH          = 2025-11-30T14:00:01.999872
MEAN_MOTION    = 15.39591254
ECCENTRICITY   = .00011755
INCLINATION    = 53.1578
RA_OF_ASC_NODE = 294.4100
ARG_OF_PERICENTER = 86.6664
MEAN_ANOMALY   = 247.2990

EPHEMERIS_TYPE = 0
CLASSIFICATION_TYPE = U
NORAD_CAT_ID   = 66287
ELEMENT_SET_NO = 999
REV_AT_EPOCH   = 593
BSTAR          = .17838348E-3
MEAN_MOTION_DOT = .6735E-4
MEAN_MOTION_DDOT = 0

CCSDS_OMM_VERS = 2.0
CREATION_DATE  = 
ORIGINATOR     = 

OBJECT_NAME    = STARLINK-34896
OBJECT_ID      = 2025-247Z
CENTER_NAME    = EARTH
REF_FRAME      = TEME
TIME_SYSTEM    = UTC
MEAN_ELEMENT_THEORY = SGP/SGP4

EPOCH          = 2025-11-30T14:00:01.999872
MEAN_MOTION    = 15.39561774
ECCENTRICITY   = .00011894
INCLINATION    = 53.1579
RA_OF_ASC_NODE = 294.4064
ARG_OF_PERICENTER = 74.7181
MEAN_ANOMALY   = 261.0659

EPHEMERIS_TYPE = 0
CLASSIFICATION_TYPE = U
NORAD_CAT_ID   = 66288
ELEMENT_SET_NO = 999
REV_AT_EPOCH   = 593
BSTAR          = .97682519E-3
MEAN_MOTION_DOT = .38797E-3
MEAN_MOTION_DDOT = 0

